{
  "type": "FeatureCollection",
  "features": [
    {
      "type": "Feature",
      "properties": {
        "norad_id": 66663,
        "name": "KSLV-II R/B",
        "group": "last-30-days",
        "lat": -66.83775970256482,
        "lon": -72.6661432256851,
        "alt_km": 558.9519761953297,
        "timestamp": "2025-12-07T09:35:08.571979+00:00",
        "meta_object_name": "KSLV-II R/B",
        "meta_object_id": "2025-274P",
        "meta_epoch": "2025-12-06T19:27:04.446432",
        "meta_mean_motion": 14.97226496,
        "meta_eccentricity": 0.00484111,
        "meta_inclination": 97.7412,
        "meta_ra_of_asc_node": 268.2109,
        "meta_arg_of_pericenter": 339.2416,
        "meta_mean_anomaly": 20.6839,
        "meta_ephemeris_type": 0,
        "meta_classification_type": "U",
        "meta_norad_cat_id": 66663,
        "meta_element_set_no": 999,
        "meta_rev_at_epoch": 152,
        "meta_bstar": 0.00053388811,
        "meta_mean_motion_dot": 6.269e-05,
        "meta_mean_motion_ddot": 0,
        "tle_line1": "1 66663U 25274P   25340.81046813  .00006269  00000+0  53389-3 0  9995",
        "tle_line2": "2 66663  97.7412 268.2109 0048411 339.2416  20.6839 14.97226496  1529"
      },
      "geometry": {
        "type": "Point",
        "coordinates": [
          -72.6661432256851,
          -66.83775970256482
        ]
      }
    },
    {
      "type": "Feature",
      "properties": {
        "norad_id": 66664,
        "name": "SOYUZ-MS 28",
        "group": "last-30-days",
        "lat": 50.4346752489255,
        "lon": -84.5969470912935,
        "alt_km": 412.55617062733745,
        "timestamp": "2025-12-07T09:35:08.571989+00:00",
        "meta_object_name": "SOYUZ-MS 28",
        "meta_object_id": "2025-275A",
        "meta_epoch": "2025-12-06T20:46:13.238400",
        "meta_mean_motion": 15.49374779,
        "meta_eccentricity": 0.00034973,
        "meta_inclination": 51.6304,
        "meta_ra_of_asc_node": 171.5636,
        "meta_arg_of_pericenter": 213.1314,
        "meta_mean_anomaly": 146.9456,
        "meta_ephemeris_type": 0,
        "meta_classification_type": "U",
        "meta_norad_cat_id": 66664,
        "meta_element_set_no": 999,
        "meta_rev_at_epoch": 128,
        "meta_bstar": 0.00025393652,
        "meta_mean_motion_dot": 0.0001375,
        "meta_mean_motion_ddot": 0,
        "tle_line1": "1 66664U 25275A   25340.86543100  .00013750  00000+0  25394-3 0  9991",
        "tle_line2": "2 66664  51.6304 171.5636 0003497 213.1314 146.9456 15.49374779  1288"
      },
      "geometry": {
        "type": "Point",
        "coordinates": [
          -84.5969470912935,
          50.4346752489255
        ]
      }
    },
    {
      "type": "Feature",
      "properties": {
        "norad_id": 66820,
        "name": "KOMPSAT-7",
        "group": "last-30-days",
        "lat": -7.275768928676232,
        "lon": -71.64398807707083,
        "alt_km": 578.3899051035687,
        "timestamp": "2025-12-07T09:35:08.572000+00:00",
        "meta_object_name": "KOMPSAT-7",
        "meta_object_id": "2025-279A",
        "meta_epoch": "2025-12-06T20:47:47.040288",
        "meta_mean_motion": 14.98355753,
        "meta_eccentricity": 0.00094981,
        "meta_inclination": 97.6393,
        "meta_ra_of_asc_node": 286.8524,
        "meta_arg_of_pericenter": 242.4762,
        "meta_mean_anomaly": 117.5496,
        "meta_ephemeris_type": 0,
        "meta_classification_type": "U",
        "meta_norad_cat_id": 66820,
        "meta_element_set_no": 999,
        "meta_rev_at_epoch": 77,
        "meta_bstar": 0.00039334363,
        "meta_mean_motion_dot": 4.634e-05,
        "meta_mean_motion_ddot": 0,
        "tle_line1": "1 66820U 25279A   25340.86651667  .00004634  00000+0  39334-3 0  9997",
        "tle_line2": "2 66820  97.6393 286.8524 0009498 242.4762 117.5496 14.98355753   770"
      },
      "geometry": {
        "type": "Point",
        "coordinates": [
          -71.64398807707083,
          -7.275768928676232
        ]
      }
    },
    {
      "type": "Feature",
      "properties": {
        "norad_id": 66877,
        "name": "ZQ-3 R/B",
        "group": "last-30-days",
        "lat": 55.17090639689892,
        "lon": -171.41784518002163,
        "alt_km": 882.766519736002,
        "timestamp": "2025-12-07T09:35:08.572012+00:00",
        "meta_object_name": "ZQ-3 R/B",
        "meta_object_id": "2025-282A",
        "meta_epoch": "2025-12-06T23:05:26.334240",
        "meta_mean_motion": 14.44698688,
        "meta_eccentricity": 0.08406531,
        "meta_inclination": 56.9538,
        "meta_ra_of_asc_node": 79.5521,
        "meta_arg_of_pericenter": 210.066,
        "meta_mean_anomaly": 144.9465,
        "meta_ephemeris_type": 0,
        "meta_classification_type": "U",
        "meta_norad_cat_id": 66877,
        "meta_element_set_no": 999,
        "meta_rev_at_epoch": 55,
        "meta_bstar": 0.00024476681,
        "meta_mean_motion_dot": 0.01121977,
        "meta_mean_motion_ddot": 7.252501e-06,
        "tle_line1": "1 66877U 25282A   25340.96211035  .01121977  72525-5  24477-3 0  9995",
        "tle_line2": "2 66877  56.9538  79.5521 0840653 210.0660 144.9465 14.44698688   553"
      },
      "geometry": {
        "type": "Point",
        "coordinates": [
          -171.41784518002163,
          55.17090639689892
        ]
      }
    },
    {
      "type": "Feature",
      "properties": {
        "norad_id": 66906,
        "name": "1998-067XS",
        "group": "last-30-days",
        "lat": 46.31188984774572,
        "lon": -67.14811340739386,
        "alt_km": 408.7373574269177,
        "timestamp": "2025-12-07T09:35:08.572023+00:00",
        "meta_object_name": "1998-067XS",
        "meta_object_id": "1998-067XS",
        "meta_epoch": "2025-12-06T22:16:16.867200",
        "meta_mean_motion": 15.50144102,
        "meta_eccentricity": 0.00041468,
        "meta_inclination": 51.6299,
        "meta_ra_of_asc_node": 171.2315,
        "meta_arg_of_pericenter": 177.6061,
        "meta_mean_anomaly": 182.4948,
        "meta_ephemeris_type": 0,
        "meta_classification_type": "U",
        "meta_norad_cat_id": 66906,
        "meta_element_set_no": 999,
        "meta_rev_at_epoch": 71,
        "meta_bstar": 0.00061899955,
        "meta_mean_motion_dot": 0.00035216,
        "meta_mean_motion_ddot": 0,
        "tle_line1": "1 66906U 98067XS  25340.92797300  .00035216  00000+0  61900-3 0  9993",
        "tle_line2": "2 66906  51.6299 171.2315 0004146 177.6061 182.4948 15.50144102   711"
      },
      "geometry": {
        "type": "Point",
        "coordinates": [
          -67.14811340739386,
          46.31188984774572
        ]
      }
    },
    {
      "type": "Feature",
      "properties": {
        "norad_id": 66907,
        "name": "1998-067XT",
        "group": "last-30-days",
        "lat": 44.7932250535308,
        "lon": -62.982722793859146,
        "alt_km": 408.36180268754924,
        "timestamp": "2025-12-07T09:35:08.572035+00:00",
        "meta_object_name": "1998-067XT",
        "meta_object_id": "1998-067XT",
        "meta_epoch": "2025-12-06T22:15:35.290656",
        "meta_mean_motion": 15.50498848,
        "meta_eccentricity": 0.00052114,
        "meta_inclination": 51.6299,
        "meta_ra_of_asc_node": 171.2284,
        "meta_arg_of_pericenter": 194.7186,
        "meta_mean_anomaly": 165.3652,
        "meta_ephemeris_type": 0,
        "meta_classification_type": "U",
        "meta_norad_cat_id": 66907,
        "meta_element_set_no": 999,
        "meta_rev_at_epoch": 71,
        "meta_bstar": 0.001226899,
        "meta_mean_motion_dot": 0.00071486,
        "meta_mean_motion_ddot": 0,
        "tle_line1": "1 66907U 98067XT  25340.92749179  .00071486  00000+0  12269-2 0  9997",
        "tle_line2": "2 66907  51.6299 171.2284 0005211 194.7186 165.3652 15.50498848   710"
      },
      "geometry": {
        "type": "Point",
        "coordinates": [
          -62.982722793859146,
          44.7932250535308
        ]
      }
    },
    {
      "type": "Feature",
      "properties": {
        "norad_id": 66908,
        "name": "1998-067XU",
        "group": "last-30-days",
        "lat": 44.3886250882807,
        "lon": -61.97311834434389,
        "alt_km": 408.1814266640167,
        "timestamp": "2025-12-07T09:35:08.572046+00:00",
        "meta_object_name": "1998-067XU",
        "meta_object_id": "1998-067XU",
        "meta_epoch": "2025-12-06T22:15:23.816736",
        "meta_mean_motion": 15.50551079,
        "meta_eccentricity": 0.00054036,
        "meta_inclination": 51.6296,
        "meta_ra_of_asc_node": 171.2272,
        "meta_arg_of_pericenter": 194.2976,
        "meta_mean_anomaly": 165.7861,
        "meta_ephemeris_type": 0,
        "meta_classification_type": "U",
        "meta_norad_cat_id": 66908,
        "meta_element_set_no": 999,
        "meta_rev_at_epoch": 71,
        "meta_bstar": 0.0011470427,
        "meta_mean_motion_dot": 0.00066891,
        "meta_mean_motion_ddot": 0,
        "tle_line1": "1 66908U 98067XU  25340.92735899  .00066891  00000+0  11470-2 0  9999",
        "tle_line2": "2 66908  51.6296 171.2272 0005403 194.2976 165.7861 15.50551079   712"
      },
      "geometry": {
        "type": "Point",
        "coordinates": [
          -61.97311834434389,
          44.3886250882807
        ]
      }
    }
  ]
}